OBJECT_NAME,OBJECT_ID,EPOCH,MEAN_MOTION,ECCENTRICITY,INCLINATION,RA_OF_ASC_NODE,ARG_OF_PERICENTER,MEAN_ANOMALY,EPHEMERIS_TYPE,CLASSIFICATION_TYPE,NORAD_CAT_ID,ELEMENT_SET_NO,REV_AT_EPOCH,BSTAR,MEAN_MOTION_DOT,MEAN_MOTION_DDOT
SAUDISAT 1C (SO-50),2002-058C,2026-07-17T03:53:24.264096,14.83100454,.0074468,64.5519,36.2392,256.9149,102.3638,0,U,27607,999,26890,.60036E-4,.356E-5,0
SAUDISAT 2,2004-025F,2026-07-16T21:48:28.693152,14.56698750,.0024167,98.5521,198.6604,202.8058,157.2067,0,U,28371,999,17007,.31087E-4,.9E-6,0
SAUDISAT 3,2007-012B,2026-07-16T20:08:52.310976,14.71440794,.0015682,98.1467,148.2621,129.8327,230.4262,0,U,31118,999,3210,.24451E-4,.101E-5,0
PISAT,2016-059B,2026-07-16T13:40:01.956576,14.69031064,.0030481,97.8192,196.7617,110.6238,249.8241,0,U,41784,999,52405,.81287E-4,.433E-5,0
FLYING LAPTOP,2017-042G,2026-07-17T04:18:34.390944,15.01320038,.0019613,97.4815,352.5854,26.2023,334.0190,0,U,42831,999,49095,.14024E-3,.1754E-4,0
SALSAT,2020-068K,2026-07-16T21:40:14.441952,15.30185999,.0009381,97.8857,202.7868,186.6655,173.4461,0,U,46495,999,31990,.13754E-3,.3936E-4,0
